{"type": "FeatureCollection", "features": [ {"type": "Feature", "properties": {"norad_id": 36048, "name": "COSMOS 2251 DEB", "group": "cosmos-2251-debris", "lat": -4.122251812573727, "lon": 94.43759175914833, "alt_km": 782.6931446937051, "timestamp": "2025-12-26T21:25:53.406532+00:00", "meta": {"OBJECT_NAME": "COSMOS 2251 DEB", "OBJECT_ID": "1993-036AXK", "EPOCH": "2025-12-26T11:06:59.253120", "MEAN_MOTION": 14.37874614, "ECCENTRICITY": 0.00271192, "INCLINATION": 74.0571, "RA_OF_ASC_NODE": 274.0472, "ARG_OF_PERICENTER": 321.5675, "MEAN_ANOMALY": 158.955, "EPHEMERIS_TYPE": 0, "CLASSIFICATION_TYPE": "U", "NORAD_CAT_ID": 36048, "ELEMENT_SET_NO": 999, "REV_AT_EPOCH": 85699, "BSTAR": 0.00026847103, "MEAN_MOTION_DOT": 7.87e-06, "MEAN_MOTION_DDOT": 0}, "tle": {"line1": "1 36048U 93036AXK 25360.46318580  .00000787  00000+0  26847-3 0  9994", "line2": "2 36048  74.0571 274.0472 0027119 321.5675 158.9550 14.37874614856997"}}, "geometry": {"type": "Point", "coordinates": [94.43759175914833, -4.122251812573727]}}, {"type": "Feature", "properties": {"norad_id": 36049, "name": "COSMOS 2251 DEB", "group": "cosmos-2251-debris", "lat": 73.99908884824872, "lon": -174.88997814837532, "alt_km": 678.223412865259, "timestamp": "2025-12-26T21:25:53.406541+00:00", "meta": {"OBJECT_NAME": "COSMOS 2251 DEB", "OBJECT_ID": "1993-036AXL", "EPOCH": "2025-12-26T12:48:27.766944", "MEAN_MOTION": 14.6231951, "ECCENTRICITY": 0.00097791, "INCLINATION": 74.0305, "RA_OF_ASC_NODE": 92.7578, "ARG_OF_PERICENTER": 181.4068, "MEAN_ANOMALY": 178.7073, "EPHEMERIS_TYPE": 0, "CLASSIFICATION_TYPE": "U", "NORAD_CAT_ID": 36049, "ELEMENT_SET_NO": 999, "REV_AT_EPOCH": 85566, "BSTAR": 0.001294958, "MEAN_MOTION_DOT": 6.52e-05, "MEAN_MOTION_DDOT": 0}, "tle": {"line1": "1 36049U 93036AXL 25360.53365471  .00006520  00000+0  12950-2 0  9994", "line2": "2 36049  74.0305  92.7578 0009779 181.4068 178.7073 14.62319510855666"}}, "geometry": {"type": "Point", "coordinates": [-174.88997814837532, 73.99908884824872]}}, {"type": "Feature", "properties": {"norad_id": 36050, "name": "COSMOS 2251 DEB", "group": "cosmos-2251-debris", "lat": -16.058856906370597, "lon": 160.4698623051756, "alt_km": 579.6779859696953, "timestamp": "2025-12-26T21:25:53.406551+00:00", "meta": {"OBJECT_NAME": "COSMOS 2251 DEB", "OBJECT_ID": "1993-036AXM", "EPOCH": "2025-12-23T18:20:06.375552", "MEAN_MOTION": 15.01191833, "ECCENTRICITY": 0.00883826, "INCLINATION": 74.0302, "RA_OF_ASC_NODE": 171.57, "ARG_OF_PERICENTER": 248.7055, "MEAN_ANOMALY": 110.468, "EPHEMERIS_TYPE": 0, "CLASSIFICATION_TYPE": "U", "NORAD_CAT_ID": 36050, "ELEMENT_SET_NO": 999, "REV_AT_EPOCH": 67200, "BSTAR": 0.00066513085, "MEAN_MOTION_DOT": 9.246e-05, "MEAN_MOTION_DDOT": 0}, "tle": {"line1": "1 36050U 93036AXM 25357.76396268  .00009246  00000+0  66513-3 0  9998", "line2": "2 36050  74.0302 171.5700 0088382 248.7055 110.4680 15.01191833672000"}}, "geometry": {"type": "Point", "coordinates": [160.4698623051756, -16.058856906370597]}}, {"type": "Feature", "properties": {"norad_id": 36053, "name": "COSMOS 2251 DEB", "group": "cosmos-2251-debris", "lat": 3.035611737905399, "lon": -55.35333327562727, "alt_km": 710.6034529473673, "timestamp": "2025-12-26T21:25:53.406562+00:00", "meta": {"OBJECT_NAME": "COSMOS 2251 DEB", "OBJECT_ID": "1993-036AXQ", "EPOCH": "2025-12-26T00:51:23.527872", "MEAN_MOTION": 14.57338547, "ECCENTRICITY": 0.00324806, "INCLINATION": 73.8704, "RA_OF_ASC_NODE": 127.1707, "ARG_OF_PERICENTER": 71.5947, "MEAN_ANOMALY": 288.8743, "EPHEMERIS_TYPE": 0, "CLASSIFICATION_TYPE": "U", "NORAD_CAT_ID": 36053, "ELEMENT_SET_NO": 999, "REV_AT_EPOCH": 87638, "BSTAR": 0.0014377554, "MEAN_MOTION_DOT": 6.535e-05, "MEAN_MOTION_DDOT": 0}, "tle": {"line1": "1 36053U 93036AXQ 25360.03568898  .00006535  00000+0  14378-2 0  9994", "line2": "2 36053  73.8704 127.1707 0032480  71.5947 288.8743 14.57338547876382"}}, "geometry": {"type": "Point", "coordinates": [-55.35333327562727, 3.035611737905399]}}, {"type": "Feature", "properties": {"norad_id": 36058, "name": "COSMOS 2251 DEB", "group": "cosmos-2251-debris", "lat": 15.613518572988434, "lon": 11.080906187316861, "alt_km": 713.4676994379497, "timestamp": "2025-12-26T21:25:53.406572+00:00", "meta": {"OBJECT_NAME": "COSMOS 2251 DEB", "OBJECT_ID": "1993-036AXV", "EPOCH": "2025-12-20T18:52:04.818432", "MEAN_MOTION": 14.58726339, "ECCENTRICITY": 0.00440828, "INCLINATION": 74.0229, "RA_OF_ASC_NODE": 18.1226, "ARG_OF_PERICENTER": 150.2394, "MEAN_ANOMALY": 210.1292, "EPHEMERIS_TYPE": 0, "CLASSIFICATION_TYPE": "U", "NORAD_CAT_ID": 36058, "ELEMENT_SET_NO": 999, "REV_AT_EPOCH": 66228, "BSTAR": 0.0002931852, "MEAN_MOTION_DOT": 1.357e-05, "MEAN_MOTION_DDOT": 0}, "tle": {"line1": "1 36058U 93036AXV 25354.78616688  .00001357  00000+0  29319-3 0  9994", "line2": "2 36058  74.0229  18.1226 0044082 150.2394 210.1292 14.58726339662289"}}, "geometry": {"type": "Point", "coordinates": [11.080906187316861, 15.613518572988434]}}, {"type": "Feature", "properties": {"norad_id": 36060, "name": "COSMOS 2251 DEB", "group": "cosmos-2251-debris", "lat": 29.637012024195332, "lon": 18.941357108256206, "alt_km": 760.0730208742789, "timestamp": "2025-12-26T21:25:53.406582+00:00", "meta": {"OBJECT_NAME": "COSMOS 2251 DEB", "OBJECT_ID": "1993-036AXX", "EPOCH": "2025-12-26T07:25:19.722720", "MEAN_MOTION": 14.42027027, "ECCENTRICITY": 0.0015653, "INCLINATION": 74.0274, "RA_OF_ASC_NODE": 209.4018, "ARG_OF_PERICENTER": 305.047, "MEAN_ANOMALY": 54.9217, "EPHEMERIS_TYPE": 0, "CLASSIFICATION_TYPE": "U", "NORAD_CAT_ID": 36060, "ELEMENT_SET_NO": 999, "REV_AT_EPOCH": 85205, "BSTAR": 0.00029264636, "MEAN_MOTION_DOT": 9.35e-06, "MEAN_MOTION_DDOT": 0}, "tle": {"line1": "1 36060U 93036AXX 25360.30925605  .00000935  00000+0  29265-3 0  9995", "line2": "2 36060  74.0274 209.4018 0015653 305.0470  54.9217 14.42027027852051"}}, "geometry": {"type": "Point", "coordinates": [18.941357108256206, 29.637012024195332]}}, {"type": "Feature", "properties": {"norad_id": 36061, "name": "COSMOS 2251 DEB", "group": "cosmos-2251-debris", "lat": -73.9015798419736, "lon": -123.15985866833601, "alt_km": 809.0284501654014, "timestamp": "2025-12-26T21:25:53.406616+00:00", "meta": {"OBJECT_NAME": "COSMOS 2251 DEB", "OBJECT_ID": "1993-036AXY", "EPOCH": "2025-12-26T05:06:50.998464", "MEAN_MOTION": 14.33730546, "ECCENTRICITY": 0.00369994, "INCLINATION": 74.0257, "RA_OF_ASC_NODE": 335.0992, "ARG_OF_PERICENTER": 58.9018, "MEAN_ANOMALY": 301.5755, "EPHEMERIS_TYPE": 0, "CLASSIFICATION_TYPE": "U", "NORAD_CAT_ID": 36061, "ELEMENT_SET_NO": 999, "REV_AT_EPOCH": 65297, "BSTAR": 0.00033911755, "MEAN_MOTION_DOT": 9.23e-06, "MEAN_MOTION_DDOT": 0}, "tle": {"line1": "1 36061U 93036AXY 25360.21309026  .00000923  00000+0  33912-3 0  9990", "line2": "2 36061  74.0257 335.0992 0036999  58.9018 301.5755 14.33730546652972"}}, "geometry": {"type": "Point", "coordinates": [-123.15985866833601, -73.9015798419736]}}, {"type": "Feature", "properties": {"norad_id": 36073, "name": "COSMOS 2251 DEB", "group": "cosmos-2251-debris", "lat": 63.13859778391777, "lon": -28.956387880654027, "alt_km": 761.9548910644435, "timestamp": "2025-12-26T21:25:53.406627+00:00", "meta": {"OBJECT_NAME": "COSMOS 2251 DEB", "OBJECT_ID": "1993-036AYL", "EPOCH": "2025-12-18T03:58:06.481920", "MEAN_MOTION": 14.34959898, "ECCENTRICITY": 0.00240895, "INCLINATION": 74.0326, "RA_OF_ASC_NODE": 312.6126, "ARG_OF_PERICENTER": 19.0207, "MEAN_ANOMALY": 341.1839, "EPHEMERIS_TYPE": 0, "CLASSIFICATION_TYPE": "U", "NORAD_CAT_ID": 36073, "ELEMENT_SET_NO": 999, "REV_AT_EPOCH": 70285, "BSTAR": 0.0001893667, "MEAN_MOTION_DOT": 5.14e-06, "MEAN_MOTION_DDOT": 0}, "tle": {"line1": "1 36073U 93036AYL 25352.16535280  .00000514  00000+0  18937-3 0  9997", "line2": "2 36073  74.0326 312.6126 0024089  19.0207 341.1839 14.34959898702857"}}, "geometry": {"type": "Point", "coordinates": [-28.956387880654027, 63.13859778391777]}}, {"type": "Feature", "properties": {"norad_id": 36074, "name": "COSMOS 2251 DEB", "group": "cosmos-2251-debris", "lat": -62.17373040856831, "lon": -78.84045696165268, "alt_km": 762.2801289723311, "timestamp": "2025-12-26T21:25:53.406638+00:00", "meta": {"OBJECT_NAME": "COSMOS 2251 DEB", "OBJECT_ID": "1993-036AYM", "EPOCH": "2025-12-22T22:57:11.517120", "MEAN_MOTION": 14.43796912, "ECCENTRICITY": 0.0041956, "INCLINATION": 73.994, "RA_OF_ASC_NODE": 321.4388, "ARG_OF_PERICENTER": 50.2945, "MEAN_ANOMALY": 310.1898, "EPHEMERIS_TYPE": 0, "CLASSIFICATION_TYPE": "U", "NORAD_CAT_ID": 36074, "ELEMENT_SET_NO": 999, "REV_AT_EPOCH": 86057, "BSTAR": 0.001160749, "MEAN_MOTION_DOT": 3.969e-05, "MEAN_MOTION_DDOT": 0}, "tle": {"line1": "1 36074U 93036AYM 25356.95638330  .00003969  00000+0  11607-2 0  9992", "line2": "2 36074  73.9940 321.4388 0041956  50.2945 310.1898 14.43796912860575"}}, "geometry": {"type": "Point", "coordinates": [-78.84045696165268, -62.17373040856831]}}, {"type": "Feature", "properties": {"norad_id": 36366, "name": "COSMOS 2251 DEB", "group": "cosmos-2251-debris", "lat": 58.976744511625995, "lon": -84.4039258556082, "alt_km": 829.8848162900622, "timestamp": "2025-12-26T21:25:53.406648+00:00", "meta": {"OBJECT_NAME": "COSMOS 2251 DEB", "OBJECT_ID": "1993-036AYT", "EPOCH": "2025-12-26T09:24:42.807168", "MEAN_MOTION": 14.33500442, "ECCENTRICITY": 0.00898676, "INCLINATION": 74.0644, "RA_OF_ASC_NODE": 248.146, "ARG_OF_PERICENTER": 273.5362, "MEAN_ANOMALY": 85.5514, "EPHEMERIS_TYPE": 0, "CLASSIFICATION_TYPE": "U", "NORAD_CAT_ID": 36366, "ELEMENT_SET_NO": 999, "REV_AT_EPOCH": 86484, "BSTAR": 0.0012889083, "MEAN_MOTION_DOT": 3.702e-05, "MEAN_MOTION_DDOT": 0}, "tle": {"line1": "1 36366U 93036AYT 25360.39216212  .00003702  00000+0  12889-2 0  9998", "line2": "2 36366  74.0644 248.1460 0089867 273.5362  85.5514 14.33500442864846"}}, "geometry": {"type": "Point", "coordinates": [-84.4039258556082, 58.976744511625995]}}]}